{
  "type": "FeatureCollection",
  "features": [
    {
      "type": "Feature",
      "properties": {
        "norad_id": 31424,
        "name": "FENGYUN 1C DEB",
        "group": "fengyun-1c-debris",
        "lat": 45.36205514419783,
        "lon": 18.27873323320866,
        "alt_km": 837.6175800091087,
        "timestamp": "2025-12-08T17:43:05.213601+00:00",
        "meta_object_name": "FENGYUN 1C DEB",
        "meta_object_id": "1999-025BTL",
        "meta_epoch": "2025-12-06T14:20:51.689472",
        "meta_mean_motion": 14.08352403,
        "meta_eccentricity": 0.00944321,
        "meta_inclination": 98.4822,
        "meta_ra_of_asc_node": 24.9579,
        "meta_arg_of_pericenter": 122.6448,
        "meta_mean_anomaly": 238.3878,
        "meta_ephemeris_type": 0,
        "meta_classification_type": "U",
        "meta_norad_cat_id": 31424,
        "meta_element_set_no": 999,
        "meta_rev_at_epoch": 63084,
        "meta_bstar": 0.00030072838,
        "meta_mean_motion_dot": 4.97e-06,
        "meta_mean_motion_ddot": 0,
        "tle_line1": "1 31424U 99025BTL 25340.59782048  .00000497  00000+0  30073-3 0  9991",
        "tle_line2": "2 31424  98.4822  24.9579 0094432 122.6448 238.3878 14.08352403630844"
      },
      "geometry": {
        "type": "Point",
        "coordinates": [
          18.27873323320866,
          45.36205514419783
        ]
      }
    },
    {
      "type": "Feature",
      "properties": {
        "norad_id": 31426,
        "name": "FENGYUN 1C DEB",
        "group": "fengyun-1c-debris",
        "lat": 46.40413814597339,
        "lon": -30.224474135862884,
        "alt_km": 814.9425171599378,
        "timestamp": "2025-12-08T17:43:05.213611+00:00",
        "meta_object_name": "FENGYUN 1C DEB",
        "meta_object_id": "1999-025BTN",
        "meta_epoch": "2025-12-07T05:37:47.692992",
        "meta_mean_motion": 13.8997631,
        "meta_eccentricity": 0.03250534,
        "meta_inclination": 98.5793,
        "meta_ra_of_asc_node": 139.2632,
        "meta_arg_of_pericenter": 201.1727,
        "meta_mean_anomaly": 334.7898,
        "meta_ephemeris_type": 0,
        "meta_classification_type": "U",
        "meta_norad_cat_id": 31426,
        "meta_element_set_no": 999,
        "meta_rev_at_epoch": 93496,
        "meta_bstar": 0.0047916332,
        "meta_mean_motion_dot": 9.013e-05,
        "meta_mean_motion_ddot": 0,
        "tle_line1": "1 31426U 99025BTN 25341.23457978  .00009013  00000+0  47916-2 0  9992",
        "tle_line2": "2 31426  98.5793 139.2632 0325053 201.1727 334.7898 13.89976310934963"
      },
      "geometry": {
        "type": "Point",
        "coordinates": [
          -30.224474135862884,
          46.40413814597339
        ]
      }
    },
    {
      "type": "Feature",
      "properties": {
        "norad_id": 31427,
        "name": "FENGYUN 1C DEB",
        "group": "fengyun-1c-debris",
        "lat": 14.576943296416136,
        "lon": -86.1034550786125,
        "alt_km": 713.9463527084272,
        "timestamp": "2025-12-08T17:43:05.213622+00:00",
        "meta_object_name": "FENGYUN 1C DEB",
        "meta_object_id": "1999-025BTP",
        "meta_epoch": "2025-12-07T06:23:22.748064",
        "meta_mean_motion": 14.58489151,
        "meta_eccentricity": 0.00316244,
        "meta_inclination": 98.6696,
        "meta_ra_of_asc_node": 90.0878,
        "meta_arg_of_pericenter": 36.8911,
        "meta_mean_anomaly": 323.4454,
        "meta_ephemeris_type": 0,
        "meta_classification_type": "U",
        "meta_norad_cat_id": 31427,
        "meta_element_set_no": 999,
        "meta_rev_at_epoch": 96801,
        "meta_bstar": 0.0034732879,
        "meta_mean_motion_dot": 0.00016223,
        "meta_mean_motion_ddot": 0,
        "tle_line1": "1 31427U 99025BTP 25341.26623551  .00016223  00000+0  34733-2 0  9992",
        "tle_line2": "2 31427  98.6696  90.0878 0031624  36.8911 323.4454 14.58489151968014"
      },
      "geometry": {
        "type": "Point",
        "coordinates": [
          -86.1034550786125,
          14.576943296416136
        ]
      }
    },
    {
      "type": "Feature",
      "properties": {
        "norad_id": 31428,
        "name": "FENGYUN 1C DEB",
        "group": "fengyun-1c-debris",
        "lat": 38.685155141730846,
        "lon": 141.2761207015829,
        "alt_km": 707.8492544971814,
        "timestamp": "2025-12-08T17:43:05.213633+00:00",
        "meta_object_name": "FENGYUN 1C DEB",
        "meta_object_id": "1999-025BTQ",
        "meta_epoch": "2025-12-07T21:13:17.747616",
        "meta_mean_motion": 14.4197847,
        "meta_eccentricity": 0.00635652,
        "meta_inclination": 99.038,
        "meta_ra_of_asc_node": 313.0502,
        "meta_arg_of_pericenter": 168.125,
        "meta_mean_anomaly": 222.012,
        "meta_ephemeris_type": 0,
        "meta_classification_type": "U",
        "meta_norad_cat_id": 31428,
        "meta_element_set_no": 999,
        "meta_rev_at_epoch": 97440,
        "meta_bstar": 0.0013332848,
        "meta_mean_motion_dot": 4.431e-05,
        "meta_mean_motion_ddot": 0,
        "tle_line1": "1 31428U 99025BTQ 25341.88423319  .00004431  00000+0  13333-2 0  9992",
        "tle_line2": "2 31428  99.0380 313.0502 0063565 168.1250 222.0120 14.41978470974409"
      },
      "geometry": {
        "type": "Point",
        "coordinates": [
          141.2761207015829,
          38.685155141730846
        ]
      }
    },
    {
      "type": "Feature",
      "properties": {
        "norad_id": 31429,
        "name": "FENGYUN 1C DEB",
        "group": "fengyun-1c-debris",
        "lat": 67.51762661191763,
        "lon": -126.58468442663809,
        "alt_km": 801.554553293814,
        "timestamp": "2025-12-08T17:43:05.213644+00:00",
        "meta_object_name": "FENGYUN 1C DEB",
        "meta_object_id": "1999-025BTR",
        "meta_epoch": "2025-12-07T21:47:00.418272",
        "meta_mean_motion": 14.22537451,
        "meta_eccentricity": 0.00147985,
        "meta_inclination": 98.6893,
        "meta_ra_of_asc_node": 30.9103,
        "meta_arg_of_pericenter": 77.0733,
        "meta_mean_anomaly": 102.328,
        "meta_ephemeris_type": 0,
        "meta_classification_type": "U",
        "meta_norad_cat_id": 31429,
        "meta_element_set_no": 999,
        "meta_rev_at_epoch": 95884,
        "meta_bstar": 0.0013744999,
        "meta_mean_motion_dot": 3.029e-05,
        "meta_mean_motion_ddot": 0,
        "tle_line1": "1 31429U 99025BTR 25341.90764373  .00003029  00000+0  13745-2 0  9993",
        "tle_line2": "2 31429  98.6893  30.9103 0014798  77.0733 102.3280 14.22537451958840"
      },
      "geometry": {
        "type": "Point",
        "coordinates": [
          -126.58468442663809,
          67.51762661191763
        ]
      }
    },
    {
      "type": "Feature",
      "properties": {
        "norad_id": 31430,
        "name": "FENGYUN 1C DEB",
        "group": "fengyun-1c-debris",
        "lat": -30.63497781373202,
        "lon": 51.00500497494232,
        "alt_km": 810.6922593067338,
        "timestamp": "2025-12-08T17:43:05.213655+00:00",
        "meta_object_name": "FENGYUN 1C DEB",
        "meta_object_id": "1999-025BTS",
        "meta_epoch": "2025-12-07T15:37:34.578624",
        "meta_mean_motion": 14.25572442,
        "meta_eccentricity": 0.00270848,
        "meta_inclination": 98.7441,
        "meta_ra_of_asc_node": 44.6915,
        "meta_arg_of_pericenter": 57.1129,
        "meta_mean_anomaly": 96.0356,
        "meta_ephemeris_type": 0,
        "meta_classification_type": "U",
        "meta_norad_cat_id": 31430,
        "meta_element_set_no": 999,
        "meta_rev_at_epoch": 96045,
        "meta_bstar": 0.0016689509,
        "meta_mean_motion_dot": 3.922e-05,
        "meta_mean_motion_ddot": 0,
        "tle_line1": "1 31430U 99025BTS 25341.65109466  .00003922  00000+0  16690-2 0  9997",
        "tle_line2": "2 31430  98.7441  44.6915 0027084  57.1129  96.0356 14.25572442960450"
      },
      "geometry": {
        "type": "Point",
        "coordinates": [
          51.00500497494232,
          -30.63497781373202
        ]
      }
    },
    {
      "type": "Feature",
      "properties": {
        "norad_id": 31431,
        "name": "FENGYUN 1C DEB",
        "group": "fengyun-1c-debris",
        "lat": -6.508718580665124,
        "lon": 50.17614056951511,
        "alt_km": 868.7423373051261,
        "timestamp": "2025-12-08T17:43:05.213665+00:00",
        "meta_object_name": "FENGYUN 1C DEB",
        "meta_object_id": "1999-025BTT",
        "meta_epoch": "2025-12-07T15:10:24.373056",
        "meta_mean_motion": 14.03044754,
        "meta_eccentricity": 0.01330657,
        "meta_inclination": 98.5386,
        "meta_ra_of_asc_node": 230.1202,
        "meta_arg_of_pericenter": 109.6865,
        "meta_mean_anomaly": 251.8715,
        "meta_ephemeris_type": 0,
        "meta_classification_type": "U",
        "meta_norad_cat_id": 31431,
        "meta_element_set_no": 999,
        "meta_rev_at_epoch": 94460,
        "meta_bstar": 0.0022798155,
        "meta_mean_motion_dot": 3.793e-05,
        "meta_mean_motion_ddot": 0,
        "tle_line1": "1 31431U 99025BTT 25341.63222654  .00003793  00000+0  22798-2 0  9993",
        "tle_line2": "2 31431  98.5386 230.1202 0133065 109.6865 251.8715 14.03044754944600"
      },
      "geometry": {
        "type": "Point",
        "coordinates": [
          50.17614056951511,
          -6.508718580665124
        ]
      }
    }
  ]
}